start=new Date('2022-05-20T00:00:00.000Z').valueOf();
sats=[{"REV_AT_EPOCH":"6601","MEAN_MOTION":"15.06395811","SITE":"AFETR","ELEMENT_SET_NO":"999","MEAN_ELEMENT_THEORY":"SGP4","FILE":"3453157","RCS_SIZE":"LARGE","DECAY_DATE":null,"TLE_LINE1":"1 47919U 21021BM  22139.44650846 -.00000299  00000-0 -11621-5 0  9998","CLASSIFICATION_TYPE":"U","GP_ID":"203950362","EPHEMERIS_TYPE":"0","PERIOD":"95.592","INCLINATION":"53.0562","TLE_LINE2":"2 47919  53.0562  42.6553 0002225  53.7255 306.3939 15.06395811 66011","SEMIMAJOR_AXIS":"6925.361","OBJECT_ID":"2021-021BM","ECCENTRICITY":"0.00022250","CENTER_NAME":"EARTH","OBJECT_TYPE":"PAYLOAD","COUNTRY_CODE":"US","TIME_SYSTEM":"UTC","BSTAR":"-0.00000116210000","OBJECT_NAME":"STARLINK-2405","ARG_OF_PERICENTER":"53.7255","EPOCH":"2022-05-19T10:42:58.330944","MEAN_ANOMALY":"306.3939","RA_OF_ASC_NODE":"42.6553","REF_FRAME":"TEME","APOAPSIS":"548.767","MEAN_MOTION_DOT":"-0.00000299","PERIAPSIS":"545.686","LAUNCH_DATE":"2021-03-14","MEAN_MOTION_DDOT":"0.0000000000000","NORAD_CAT_ID":"47919"},{"ELEMENT_SET_NO":"999","SITE":"AFETR","MEAN_MOTION":"15.06390319","REV_AT_EPOCH":"6466","DECAY_DATE":null,"MEAN_ELEMENT_THEORY":"SGP4","FILE":"3453442","RCS_SIZE":"LARGE","CLASSIFICATION_TYPE":"U","TLE_LINE1":"1 47977U 21024A   22139.58795728  .00000729  00000-0  67865-4 0  9995","GP_ID":"203957425","EPHEMERIS_TYPE":"0","INCLINATION":"53.0553","PERIOD":"95.593","TLE_LINE2":"2 47977  53.0553  87.0313 0002121  46.9233 313.1933 15.06390319 64664","ECCENTRICITY":"0.00021210","SEMIMAJOR_AXIS":"6925.378","OBJECT_ID":"2021-024A","OBJECT_TYPE":"PAYLOAD","CENTER_NAME":"EARTH","COUNTRY_CODE":"US","TIME_SYSTEM":"UTC","EPOCH":"2022-05-19T14:06:39.508992","BSTAR":"0.00006786500000","OBJECT_NAME":"STARLINK-2087","ARG_OF_PERICENTER":"46.9233","MEAN_ANOMALY":"313.1933","RA_OF_ASC_NODE":"87.0313","REF_FRAME":"TEME","APOAPSIS":"548.712","MEAN_MOTION_DOT":"0.00000729","MEAN_MOTION_DDOT":"0.0000000000000","NORAD_CAT_ID":"47977","PERIAPSIS":"545.774","LAUNCH_DATE":"2021-03-24"},{"TLE_LINE2":"2 47978  53.0557  95.7341 0001951  48.1859 311.9297 15.06397424 64555","SEMIMAJOR_AXIS":"6925.356","OBJECT_ID":"2021-024B","ECCENTRICITY":"0.00019510","EPHEMERIS_TYPE":"0","GP_ID":"203957444","INCLINATION":"53.0557","PERIOD":"95.592","TLE_LINE1":"1 47978U 21024B   22139.87453341 -.00000564  00000-0 -18951-4 0  9991","CLASSIFICATION_TYPE":"U","REV_AT_EPOCH":"6455","ELEMENT_SET_NO":"999","SITE":"AFETR","MEAN_MOTION":"15.06397424","MEAN_ELEMENT_THEORY":"SGP4","FILE":"3453443","RCS_SIZE":"LARGE","DECAY_DATE":null,"MEAN_MOTION_DOT":"-0.00000564","APOAPSIS":"548.573","LAUNCH_DATE":"2021-03-24","PERIAPSIS":"545.870","MEAN_MOTION_DDOT":"0.0000000000000","NORAD_CAT_ID":"47978","REF_FRAME":"TEME","MEAN_ANOMALY":"311.9297","RA_OF_ASC_NODE":"95.7341","TIME_SYSTEM":"UTC","OBJECT_NAME":"STARLINK-1647","ARG_OF_PERICENTER":"48.1859","BSTAR":"-0.00001895100000","EPOCH":"2022-05-19T20:59:19.686624","OBJECT_TYPE":"PAYLOAD","CENTER_NAME":"EARTH","COUNTRY_CODE":"US"},{"TLE_LINE2":"2 47979  53.0548  30.5452 0001596  54.7158 156.6618 15.06448539  1305","SEMIMAJOR_AXIS":"6925.200","OBJECT_ID":"2021-024C","ECCENTRICITY":"0.00015960","GP_ID":"203987097","EPHEMERIS_TYPE":"0","INCLINATION":"53.0548","PERIOD":"95.589","TLE_LINE1":"1 47979U 21024C   22139.91667824 -.00149729  00000-0 -10233-1 0  9999","CLASSIFICATION_TYPE":"U","REV_AT_EPOCH":"130","SITE":"AFETR","MEAN_MOTION":"15.06448539","ELEMENT_SET_NO":"999","FILE":"3453812","RCS_SIZE":"LARGE","MEAN_ELEMENT_THEORY":"SGP4","DECAY_DATE":null,"APOAPSIS":"548.170","MEAN_MOTION_DOT":"-0.00149729","PERIAPSIS":"545.960","LAUNCH_DATE":"2021-03-24","MEAN_MOTION_DDOT":"0.0000000000000","NORAD_CAT_ID":"47979","RA_OF_ASC_NODE":"30.5452","MEAN_ANOMALY":"156.6618","REF_FRAME":"TEME","TIME_SYSTEM":"UTC","BSTAR":"-0.01023300000000","ARG_OF_PERICENTER":"54.7158","OBJECT_NAME":"STARLINK-2325","EPOCH":"2022-05-19T22:00:00.999936","CENTER_NAME":"EARTH","OBJECT_TYPE":"PAYLOAD","COUNTRY_CODE":"US"},{"PERIOD":"95.593","INCLINATION":"53.0548","EPHEMERIS_TYPE":"0","GP_ID":"203987346","OBJECT_ID":"2021-024D","SEMIMAJOR_AXIS":"6925.395","ECCENTRICITY":"0.00018190","TLE_LINE2":"2 47980  53.0548  10.5651 0001819  53.2466 108.1362 15.06384839  1300","RCS_SIZE":"LARGE","FILE":"3453812","MEAN_ELEMENT_THEORY":"SGP4","DECAY_DATE":null,"REV_AT_EPOCH":"130","SITE":"AFETR","MEAN_MOTION":"15.06384839","ELEMENT_SET_NO":"999","TLE_LINE1":"1 47980U 21024D   22139.91667824  .00011222  00000-0  77137-3 0  9993","CLASSIFICATION_TYPE":"U","REF_FRAME":"TEME","MEAN_ANOMALY":"108.1362","RA_OF_ASC_NODE":"10.5651","PERIAPSIS":"546.000","LAUNCH_DATE":"2021-03-24","NORAD_CAT_ID":"47980","MEAN_MOTION_DDOT":"0.0000000000000","MEAN_MOTION_DOT":"0.00011222","APOAPSIS":"548.520","COUNTRY_CODE":"US","OBJECT_TYPE":"PAYLOAD","CENTER_NAME":"EARTH","ARG_OF_PERICENTER":"53.2466","OBJECT_NAME":"STARLINK-2312","BSTAR":"0.00077137000000","EPOCH":"2022-05-19T22:00:00.999936","TIME_SYSTEM":"UTC"},{"DECAY_DATE":null,"FILE":"3453422","MEAN_ELEMENT_THEORY":"SGP4","RCS_SIZE":"LARGE","SITE":"AFETR","MEAN_MOTION":"15.06414192","ELEMENT_SET_NO":"999","REV_AT_EPOCH":"6451","CLASSIFICATION_TYPE":"U","TLE_LINE1":"1 47981U 21024E   22139.59810626  .00008847  00000-0  61186-3 0  9994","INCLINATION":"53.0536","PERIOD":"95.591","EPHEMERIS_TYPE":"0","GP_ID":"203956286","ECCENTRICITY":"0.00019700","SEMIMAJOR_AXIS":"6925.305","OBJECT_ID":"2021-024E","TLE_LINE2":"2 47981  53.0536  96.9782 0001970  55.5503 304.5672 15.06414192 64510","COUNTRY_CODE":"US","CENTER_NAME":"EARTH","OBJECT_TYPE":"PAYLOAD","EPOCH":"2022-05-19T14:21:16.380864","ARG_OF_PERICENTER":"55.5503","OBJECT_NAME":"STARLINK-2303","BSTAR":"0.00061186000000","TIME_SYSTEM":"UTC","REF_FRAME":"TEME","MEAN_ANOMALY":"304.5672","RA_OF_ASC_NODE":"96.9782","NORAD_CAT_ID":"47981","MEAN_MOTION_DDOT":"0.0000000000000","LAUNCH_DATE":"2021-03-24","PERIAPSIS":"545.806","MEAN_MOTION_DOT":"0.00008847","APOAPSIS":"548.534"},{"CLASSIFICATION_TYPE":"U","TLE_LINE1":"1 47982U 21024F   22139.91667824 -.00011905  00000-0 -78146-3 0  9996","DECAY_DATE":null,"RCS_SIZE":"LARGE","FILE":"3453812","MEAN_ELEMENT_THEORY":"SGP4","MEAN_MOTION":"15.06408108","SITE":"AFETR","ELEMENT_SET_NO":"999","REV_AT_EPOCH":"130","ECCENTRICITY":"0.00019440","SEMIMAJOR_AXIS":"6925.324","OBJECT_ID":"2021-024F","TLE_LINE2":"2 47982  53.0554  25.5455 0001944  40.8268 352.9327 15.06408108  1304","INCLINATION":"53.0554","PERIOD":"95.592","GP_ID":"203988348","EPHEMERIS_TYPE":"0","EPOCH":"2022-05-19T22:00:00.999936","BSTAR":"-0.00078146000000","OBJECT_NAME":"STARLINK-2317","ARG_OF_PERICENTER":"40.8268","TIME_SYSTEM":"UTC","COUNTRY_CODE":"US","OBJECT_TYPE":"PAYLOAD","CENTER_NAME":"EARTH","NORAD_CAT_ID":"47982","MEAN_MOTION_DDOT":"0.0000000000000","PERIAPSIS":"545.842","LAUNCH_DATE":"2021-03-24","APOAPSIS":"548.535","MEAN_MOTION_DOT":"-0.00011905","MEAN_ANOMALY":"352.9327","RA_OF_ASC_NODE":"25.5455","REF_FRAME":"TEME"},{"MEAN_MOTION_DDOT":"0.0000000000000","NORAD_CAT_ID":"47985","PERIAPSIS":"546.147","LAUNCH_DATE":"2021-03-24","APOAPSIS":"548.320","MEAN_MOTION_DOT":"-0.00000490","RA_OF_ASC_NODE":"30.5659","MEAN_ANOMALY":"24.8491","REF_FRAME":"TEME","EPOCH":"2022-05-19T22:00:00.999936","BSTAR":"-0.00001401500000","ARG_OF_PERICENTER":"66.5478","OBJECT_NAME":"STARLINK-2308","TIME_SYSTEM":"UTC","COUNTRY_CODE":"US","CENTER_NAME":"EARTH","OBJECT_TYPE":"PAYLOAD","ECCENTRICITY":"0.00015690","SEMIMAJOR_AXIS":"6925.369","OBJECT_ID":"2021-024J","TLE_LINE2":"2 47985  53.0548  30.5659 0001569  66.5478  24.8491 15.06393477  1302","PERIOD":"95.593","INCLINATION":"53.0548","GP_ID":"203986598","EPHEMERIS_TYPE":"0","CLASSIFICATION_TYPE":"U","TLE_LINE1":"1 47985U 21024J   22139.91667824 -.00000490  00000-0 -14015-4 0  9992","DECAY_DATE":null,"FILE":"3453812","RCS_SIZE":"LARGE","MEAN_ELEMENT_THEORY":"SGP4","MEAN_MOTION":"15.06393477","SITE":"AFETR","ELEMENT_SET_NO":"999","REV_AT_EPOCH":"130"},{"MEAN_MOTION_DOT":"0.00320474","APOAPSIS":"309.214","PERIAPSIS":"305.361","LAUNCH_DATE":"2021-03-24","MEAN_MOTION_DDOT":"0.0000000000000","NORAD_CAT_ID":"47988","REF_FRAME":"TEME","MEAN_ANOMALY":"90.4089","RA_OF_ASC_NODE":"18.9490","TIME_SYSTEM":"UTC","OBJECT_NAME":"STARLINK-2306","ARG_OF_PERICENTER":"191.3446","BSTAR":"0.00110400000000","EPOCH":"2022-05-19T22:00:00.999936","OBJECT_TYPE":"PAYLOAD","CENTER_NAME":"EARTH","COUNTRY_CODE":"US","TLE_LINE2":"2 47988  53.0425  18.9490 0002882 191.3446  90.4089 15.88215620  1308","SEMIMAJOR_AXIS":"6685.423","OBJECT_ID":"2021-024M","ECCENTRICITY":"0.00028820","EPHEMERIS_TYPE":"0","GP_ID":"203986848","INCLINATION":"53.0425","PERIOD":"90.668","TLE_LINE1":"1 47988U 21024M   22139.91667824  .00320474  00000-0  11040-2 0  9993","CLASSIFICATION_TYPE":"U","REV_AT_EPOCH":"130","SITE":"AFETR","ELEMENT_SET_NO":"999","MEAN_MOTION":"15.88215620","FILE":"3453812","RCS_SIZE":"LARGE","MEAN_ELEMENT_THEORY":"SGP4","DECAY_DATE":null},{"REV_AT_EPOCH":"130","SITE":"AFETR","MEAN_MOTION":"15.06409318","ELEMENT_SET_NO":"999","MEAN_ELEMENT_THEORY":"SGP4","FILE":"3453812","RCS_SIZE":"LARGE","DECAY_DATE":null,"TLE_LINE1":"1 47989U 21024N   22139.91667824 -.00032323  00000-0 -21604-2 0  9996","CLASSIFICATION_TYPE":"U","GP_ID":"203988098","EPHEMERIS_TYPE":"0","PERIOD":"95.592","INCLINATION":"53.0556","TLE_LINE2":"2 47989  53.0556   5.5529 0001488  80.5337   8.3625 15.06409318  1301","SEMIMAJOR_AXIS":"6925.320","OBJECT_ID":"2021-024N","ECCENTRICITY":"0.00014880","OBJECT_TYPE":"PAYLOAD","CENTER_NAME":"EARTH","COUNTRY_CODE":"US","TIME_SYSTEM":"UTC","BSTAR":"-0.00216040000000","OBJECT_NAME":"STARLINK-2305","ARG_OF_PERICENTER":"80.5337","EPOCH":"2022-05-19T22:00:00.999936","MEAN_ANOMALY":"8.3625","RA_OF_ASC_NODE":"5.5529","REF_FRAME":"TEME","APOAPSIS":"548.215","MEAN_MOTION_DOT":"-0.00032323","LAUNCH_DATE":"2021-03-24","PERIAPSIS":"546.155","NORAD_CAT_ID":"47989","MEAN_MOTION_DDOT":"0.0000000000000"}];
